{
    "links": {
        "self": "http://www.neowsapp.com/rest/v1/neo/3645653?api_key=iIulBulltgU6a56xZRHN4H3l9WmuAYTsLGpBGhQ2"
    },
    "id": "3645653",
    "neo_reference_id": "3645653",
    "name": "(2013 PC39)",
    "designation": "2013 PC39",
    "nasa_jpl_url": "http://ssd.jpl.nasa.gov/sbdb.cgi?sstr=3645653",
    "absolute_magnitude_h": 24.2,
    "estimated_diameter": {
        "kilometers": {
            "estimated_diameter_min": 0.0384197891,
            "estimated_diameter_max": 0.0859092601
        },
        "meters": {
            "estimated_diameter_min": 38.4197891064,
            "estimated_diameter_max": 85.9092601232
        },
        "miles": {
            "estimated_diameter_min": 0.0238729428,
            "estimated_diameter_max": 0.0533815229
        },
        "feet": {
            "estimated_diameter_min": 126.0491808919,
            "estimated_diameter_max": 281.8545369825
        }
    },
    "is_potentially_hazardous_asteroid": false,
    "close_approach_data": [
        {
            "close_approach_date": "2013-08-18",
            "close_approach_date_full": "2013-Aug-18 21:10",
            "epoch_date_close_approach": 1376860200000,
            "relative_velocity": {
                "kilometers_per_second": "4.8734007837",
                "kilometers_per_hour": "17544.2428213357",
                "miles_per_hour": "10901.3102130683"
            },
            "miss_distance": {
                "astronomical": "0.1357050708",
                "lunar": "52.7892725412",
                "kilometers": "20301189.539879196",
                "miles": "12614574.2345010648"
            },
            "orbiting_body": "Earth"
        }
    ],
    "orbital_data": {
        "orbit_id": "9",
        "orbit_determination_date": "2017-04-06 08:45:07",
        "first_observation_date": "2013-08-09",
        "last_observation_date": "2013-08-30",
        "data_arc_in_days": 21,
        "observations_used": 26,
        "orbit_uncertainty": "8",
        "minimum_orbit_intersection": ".132875",
        "jupiter_tisserand_invariant": "3.514",
        "epoch_osculation": "2456516.5",
        "eccentricity": ".4778599671007754",
        "semi_major_axis": "2.189844205175058",
        "inclination": "3.193068083590822",
        "ascending_node_longitude": "135.0418411399422",
        "orbital_period": "1183.636242004804",
        "perihelion_distance": "1.143405325334281",
        "perihelion_argument": "195.6669886184204",
        "aphelion_distance": "3.236283085015835",
        "perihelion_time": "2456526.710603615789",
        "mean_anomaly": "356.8944704705408",
        "mean_motion": ".3041474966922642",
        "equinox": "J2000",
        "orbit_class": {
            "orbit_class_type": "AMO",
            "orbit_class_description": "Near-Earth asteroid orbits similar to that of 1221 Amor",
            "orbit_class_range": "1.017 AU < q (perihelion) < 1.3 AU"
        }
    },
    "is_sentry_object": false
}